[{"id":"61736","name":"IONOSFERA-M 2","tle1":"1 61736U 24199B   26176.24521970  .00000048  00000+0  41172-4 0  9990","tle2":"2 61736  98.7164  49.2426 0000700  38.2918 321.8310 14.22758950131977"},{"id":"62725","name":"PRSC-EO1","tle1":"1 62725U 25012A   26176.30147742  .00008068  00000+0  40324-3 0  9999","tle2":"2 62725  97.4226 248.6025 0005416 217.5651 142.5205 15.17700788 79429"},{"id":"63772","name":"BIOMASS","tle1":"1 63772U 25090A   26176.07901319  .00000658  00000+0  12447-3 0  9992","tle2":"2 63772  98.0741   3.2821 0001431  94.7205 265.4163 14.67536508 61849"},{"id":"64694","name":"GOSAT-GW (IBUKI GW)","tle1":"1 64694U 25141A   26176.23555943  .00000507  00000+0  97747-4 0  9999","tle2":"2 64694  98.0568 113.4218 0001422  84.4862 275.6504 14.67556747 53029"},{"id":"64876","name":"IONOSFERA-M 3","tle1":"1 64876U 25155A   26176.27013387  .00000046  00000+0  40559-4 0  9998","tle2":"2 64876  98.6027 137.9717 0001483 143.1758 216.9522 14.21487773 47557"},{"id":"64877","name":"IONOSFERA-M 4","tle1":"1 64877U 25155B   26176.23457363  .00000052  00000+0  43503-4 0  9990","tle2":"2 64877  98.6026 137.8543 0001333 116.8000 243.3314 14.21490129 47545"},{"id":"64899","name":"MICROCARB","tle1":"1 64899U 25156A   26176.16875803  .00000506  00000+0  87468-4 0  9992","tle2":"2 64899  97.9921 253.1673 0015400 241.0722 118.8941 14.72530929 49142"},{"id":"64900","name":"CO3D 3","tle1":"1 64900U 25156B   26176.28383308  .00004900  00000+0  22925-3 0  9990","tle2":"2 64900  97.4331 254.8603 0001766 122.0108 238.1299 15.20210859 50765"},{"id":"64901","name":"CO3D 4","tle1":"1 64901U 25156C   26176.28398539  .00005002  00000+0  23396-3 0  9990","tle2":"2 64901  97.4333 254.8604 0000407 189.4028 170.7200 15.20212671 50765"},{"id":"64902","name":"CO3D 2","tle1":"1 64902U 25156D   26176.25064065  .00004689  00000+0  21954-3 0  9990","tle2":"2 64902  97.4331 254.7264 0001535 102.5462 257.5946 15.20211332 50759"},{"id":"64903","name":"CO3D 1","tle1":"1 64903U 25156E   26175.46090984  .00003562  00000+0  16751-3 0  9990","tle2":"2 64903  97.4329 253.9483 0001420 111.8439 248.2948 15.20219731 50638"},{"id":"65055","name":"PRSC-S1","tle1":"1 65055U 25164A   26176.21945006  .00003881  00000+0  26973-3 0  9997","tle2":"2 65055  41.1298 242.5726 0005404  40.8954 319.2265 15.06514969 49646"},{"id":"66514","name":"SENTINEL-6B","tle1":"1 66514U 25264A   26176.20572874 -.00000064  00000+0 -13624-4 0  9999","tle2":"2 66514  66.0407 118.5241 0007966 269.0394  90.9709 12.80930018 28196"},{"id":"66655","name":"CAS500-3","tle1":"1 66655U 25274F   26176.28294457  .00001222  00000+0  13781-3 0  9990","tle2":"2 66655  97.7445 104.1499 0006960  89.6301 270.5714 14.88338863 31352"},{"id":"67304","name":"CSG-3","tle1":"1 67304U 26001A   26176.23278616  .00000304  00000+0  44801-4 0  9993","tle2":"2 67304  97.8888 359.7180 0001436  96.2073 263.9304 14.82158642 25650"},{"id":"68835","name":"PRSC-E03","tle1":"1 68835U 26092A   26176.07493483  .00002752  00000+0  18896-3 0  9999","tle2":"2 68835  38.0019  43.1668 0002681  82.4012 277.7055 15.06705792  9144"},{"id":"69013","name":"CAS500-2","tle1":"1 69013U 26100AK  26176.18030235  .00007659  00000+0  35126-3 0  9998","tle2":"2 69013  97.3978  73.8947 0009804  10.5852 349.5588 15.20676417  8025"}]