OBJECT_NAME,OBJECT_ID,EPOCH,MEAN_MOTION,ECCENTRICITY,INCLINATION,RA_OF_ASC_NODE,ARG_OF_PERICENTER,MEAN_ANOMALY,EPHEMERIS_TYPE,CLASSIFICATION_TYPE,NORAD_CAT_ID,ELEMENT_SET_NO,REV_AT_EPOCH,BSTAR,MEAN_MOTION_DOT,MEAN_MOTION_DDOT
IONOSFERA-M 2,2024-199B,2026-06-25T05:53:06.982080,14.22758950,.00007006,98.7164,49.2426,38.2918,321.8310,0,U,61736,999,13197,.41172412E-4,.48E-6,0
PRSC-EO1,2025-012A,2026-06-25T07:14:07.649088,15.17700788,.00054164,97.4226,248.6025,217.5651,142.5205,0,U,62725,999,7942,.40323834E-3,.8068E-4,0
BIOMASS,2025-090A,2026-06-25T01:53:46.739616,14.67536508,.00014316,98.0741,3.2821,94.7205,265.4163,0,U,63772,999,6184,.12447006E-3,.658E-5,0
GOSAT-GW (IBUKI GW),2025-141A,2026-06-25T05:39:12.334752,14.67556747,.00014224,98.0568,113.4218,84.4862,275.6504,0,U,64694,999,5302,.97746765E-4,.507E-5,0
IONOSFERA-M 3,2025-155A,2026-06-25T06:28:59.566368,14.21487773,.00014832,98.6027,137.9717,143.1758,216.9522,0,U,64876,999,4755,.40559398E-4,.46E-6,0
IONOSFERA-M 4,2025-155B,2026-06-25T05:37:47.161632,14.21490129,.00013339,98.6026,137.8543,116.8000,243.3314,0,U,64877,999,4754,.43503221E-4,.52E-6,0
MICROCARB,2025-156A,2026-06-25T04:03:00.693792,14.72530929,.00154009,97.9921,253.1673,241.0722,118.8941,0,U,64899,999,4914,.87468278E-4,.506E-5,0
CO3D 3,2025-156B,2026-06-25T06:48:43.178112,15.20210859,.00017669,97.4331,254.8603,122.0108,238.1299,0,U,64900,999,5076,.22924941E-3,.49E-4,0
CO3D 4,2025-156C,2026-06-25T06:48:56.337696,15.20212671,.00004077,97.4333,254.8604,189.4028,170.7200,0,U,64901,999,5076,.23395736E-3,.5002E-4,0
CO3D 2,2025-156D,2026-06-25T06:00:55.352160,15.20211332,.00015359,97.4331,254.7264,102.5462,257.5946,0,U,64902,999,5075,.21954138E-3,.4689E-4,0
CO3D 1,2025-156E,2026-06-24T11:03:42.610176,15.20219731,.00014203,97.4329,253.9483,111.8439,248.2948,0,U,64903,999,5063,.16751059E-3,.3562E-4,0
PRSC-S1,2025-164A,2026-06-25T05:16:00.485184,15.06514969,.00054046,41.1298,242.5726,40.8954,319.2265,0,U,65055,999,4964,.26972859E-3,.3881E-4,0
SENTINEL-6B,2025-264A,2026-06-25T04:56:14.963136,12.80930018,.00079667,66.0407,118.5241,269.0394,90.9709,0,U,66514,999,2819,-.13623902E-4,-.64E-6,0
CAS500-3,2025-274F,2026-06-25T06:47:26.410848,14.88338863,.00069601,97.7445,104.1499,89.6301,270.5714,0,U,66655,999,3135,.13781267E-3,.1222E-4,0
CSG-3,2026-001A,2026-06-25T05:35:12.724224,14.82158642,.0001436,97.8888,359.7180,96.2073,263.9304,0,U,67304,999,2565,.44801E-4,.304E-5,0
PRSC-E03,2026-092A,2026-06-25T01:47:54.369312,15.06705792,.00026818,38.0019,43.1668,82.4012,277.7055,0,U,68835,999,914,.18896299E-3,.2752E-4,0
CAS500-2,2026-100AK,2026-06-25T04:19:38.123040,15.20676417,.0009804,97.3978,73.8947,10.5852,349.5588,0,U,69013,999,802,.35125742E-3,.7659E-4,0
